NORAD_CAT_ID,OBJECT_NAME,OBJECT_TYPE,EPOCH,MEAN_MOTION,ECCENTRICITY,INCLINATION,RA_OF_ASC_NODE,ARG_OF_PERICENTER,MEAN_ANOMALY,BSTAR,MEAN_MOTION_DOT,MEAN_MOTION_DDOT,TLE_LINE0,TLE_LINE1,TLE_LINE2,SEMIMAJOR_AXIS,PERIOD,APOGEE,PERIGEE,DECAYED
53164.0,STARLINK-4116,PAYLOAD,2022-08-20 14:00:01,15.73205486,0.0002599,53.2173,238.5906,16.6221,120.7919,-1.7469e-05,-3.074e-05,0.0,0 STARLINK-4116,1 53164U 22083AJ  22232.58334491 -.00003074  00000-0 -17469-4 0  9999,2 53164  53.2173 238.5906 0002599  16.6221 120.7919 15.73205486  1302,6727.88,91.533,351.49300000000005,347.996,0.0
53164.0,STARLINK-4116,PAYLOAD,2022-08-20 22:00:00,15.73175245,0.0002855,53.2144,236.9448,15.5282,210.928,0.00039204,0.00054708,0.0,0 STARLINK-4116,1 53164U 22083AJ  22232.91667824  .00054708  00000-0  39204-3 0  9993,2 53164  53.2144 236.9448 0002855  15.5282 210.9280 15.73175245  1305,6727.965999999999,91.535,351.75199999999984,347.91,0.0
53164.0,STARLINK-4116,PAYLOAD,2022-08-21 14:00:01,15.73177186,0.000304,53.2135,233.6475,11.2576,33.0542,0.00016567,0.00022673,0.0,0 STARLINK-4116,1 53164U 22083AJ  22233.58334491  .00022673  00000-0  16567-3 0  9991,2 53164  53.2135 233.6475 0003040  11.2576  33.0542 15.73177186  1306,6727.96,91.535,351.871,347.78,0.0
53164.0,STARLINK-4116,PAYLOAD,2022-08-21 22:00:00,15.7317398,0.000273,53.2136,231.9963,13.3673,119.8548,0.0005775,0.00081133,0.0,0 STARLINK-4116,1 53164U 22083AJ  22233.91667824  .00081133  00000-0  57750-3 0  9992,2 53164  53.2136 231.9963 0002730  13.3673 119.8548 15.73173980  1303,6727.969,91.535,351.671,347.99800000000016,0.0
53164.0,STARLINK-4116,PAYLOAD,2022-08-22 12:00:00,15.7318797,0.0003028,53.2136,229.1118,9.6864,189.189,0.00020929,0.00028841,0.0,0 STARLINK-4116,1 53164U 22083AJ  22234.50001157  .00028841  00000-0  20929-3 0  9994,2 53164  53.2136 229.1118 0003028   9.6864 189.1890 15.73187970  6304,6727.929,91.534,351.832,347.75699999999995,0.0
53164.0,STARLINK-4116,PAYLOAD,2022-08-22 22:00:00,15.73212478,0.0002829,53.2139,227.0476,14.0787,25.9498,-0.00022749,-0.0003245,0.0,0 STARLINK-4116,1 53164U 22083AJ  22234.91667824 -.00032450  00000-0 -22749-3 0  9993,2 53164  53.2139 227.0476 0002829  14.0787  25.9498 15.73212478  1301,6727.86,91.532,351.62800000000016,347.821,0.0
53164.0,STARLINK-4116,PAYLOAD,2022-08-23 04:00:00,15.73188204,0.0003013,53.2137,225.8119,17.4217,359.3024,-0.00019477,-0.0002786,0.0,0 STARLINK-4116,1 53164U 22083AJ  22235.16667824 -.00027860  00000-0 -19477-3 0  9994,2 53164  53.2137 225.8119 0003013  17.4217 359.3024 15.73188204  6404,6727.929,91.534,351.821,347.767,0.0
53164.0,STARLINK-4116,PAYLOAD,2022-08-23 12:00:00,15.73175328,0.0003161,53.213,224.163,17.3179,88.3064,0.00027445,0.00038037,0.0,0 STARLINK-4116,1 53164U 22083AJ  22235.50001157  .00038037  00000-0  27445-3 0  9993,2 53164  53.2130 224.1630 0003161  17.3179  88.3064 15.73175328  6469,6727.965999999999,91.535,351.957,347.704,0.0
53164.0,STARLINK-4116,PAYLOAD,2022-08-23 14:00:01,15.7320209,0.0003074,53.2129,223.7501,17.77,200.0746,-6.3735e-05,-9.561e-05,0.0,0 STARLINK-4116,1 53164U 22083AJ  22235.58334491 -.00009561  00000-0 -63735-4 0  9996,2 53164  53.2129 223.7501 0003074  17.7700 200.0746 15.73202090  1301,6727.889,91.533,351.82199999999995,347.686,0.0
53164.0,STARLINK-4116,PAYLOAD,2022-08-23 22:00:01,15.73189073,0.0002833,53.2132,222.0989,20.5733,286.2662,0.00049145,0.00068896,0.0,0 STARLINK-4116,1 53164U 22083AJ  22235.91668981  .00068896  00000-0  49145-3 0  9999,2 53164  53.2132 222.0989 0002833  20.5733 286.2662 15.73189073  1305,6727.926,91.534,351.69699999999995,347.885,0.0
53164.0,STARLINK-4116,PAYLOAD,2022-08-24 04:00:00,15.73240596,0.0002965,53.2133,220.8634,19.1587,264.3079,-0.00023514,-0.00033557,0.0,0 STARLINK-4116,1 53164U 22083AJ  22236.16667824 -.00033557  00000-0 -23514-3 0  9992,2 53164  53.2133 220.8634 0002965  19.1587 264.3079 15.73240596  6566,6727.779,91.531,351.639,347.65,0.0
53164.0,STARLINK-4116,PAYLOAD,2022-08-24 14:00:01,15.73207552,0.0002998,53.2135,218.8012,15.5893,109.0796,-0.0002096,-0.00029951,0.0,0 STARLINK-4116,1 53164U 22083AJ  22236.58334491 -.00029951  00000-0 -20960-3 0  9994,2 53164  53.2135 218.8012 0002998  15.5893 109.0796 15.73207552  1304,6727.874,91.533,351.756,347.722,0.0
53164.0,STARLINK-4116,PAYLOAD,2022-08-24 22:00:00,15.73187594,0.0002833,53.2137,217.1502,18.8561,194.7363,0.00038569,0.00053834,0.0,0 STARLINK-4116,1 53164U 22083AJ  22236.91667824  .00053834  00000-0  38569-3 0  9999,2 53164  53.2137 217.1502 0002833  18.8561 194.7363 15.73187594  1302,6727.931,91.534,351.702,347.89,0.0
53164.0,STARLINK-4116,PAYLOAD,2022-08-25 06:00:02,15.73220449,0.0003097,53.2134,215.5025,18.5505,284.0471,7.9522e-05,0.00010563,0.0,0 STARLINK-4116,1 53164U 22083AJ  22237.25002315  .00010563  00000-0  79522-4 0  9992,2 53164  53.2134 215.5025 0003097  18.5505 284.0471 15.73220449  6731,6727.837,91.532,351.785,347.61800000000005,0.0
53164.0,STARLINK-4116,PAYLOAD,2022-08-25 14:00:01,15.73252953,0.0002947,53.213,213.8522,16.2585,15.2304,-0.00064137,-0.00089906,0.0,0 STARLINK-4116,1 53164U 22083AJ  22237.58334491 -.00089906  00000-0 -64137-3 0  9995,2 53164  53.2130 213.8522 0002947  16.2585  15.2304 15.73252953  1308,6727.744000000002,91.53,351.592,347.62699999999984,0.0
53164.0,STARLINK-4116,PAYLOAD,2022-08-25 18:00:00,15.73288782,0.000276,53.2149,213.0236,18.0643,237.9133,-0.0015857999999999,-0.00218393,0.0,0 STARLINK-4116,1 53164U 22083AJ  22237.75001157 -.00218393  00000-0 -15858-2 0  9993,2 53164  53.2149 213.0236 0002760  18.0643 237.9133 15.73288782  6813,6727.642,91.528,351.36400000000015,347.65,0.0
53164.0,STARLINK-4116,PAYLOAD,2022-08-25 22:00:00,15.73176673,0.0002768999999999,53.2155,212.1971,19.1146,101.3636,-0.00077279,-0.00107621,0.0,0 STARLINK-4116,1 53164U 22083AJ  22237.91667824 -.00107621  00000-0 -77279-3 0  9997,2 53164  53.2155 212.1971 0002769  19.1146 101.3636 15.73176673  1301,6727.962,91.535,351.69,347.964,0.0
53164.0,STARLINK-4116,PAYLOAD,2022-08-26 06:00:00,15.73217386,0.0002973999999999,53.2137,210.5537,16.265,193.1323,3.7457e-05,4.642e-05,0.0,0 STARLINK-4116,1 53164U 22083AJ  22238.25001157  .00004642  00000-0  37457-4 0  9998,2 53164  53.2137 210.5537 0002974  16.2650 193.1323 15.73217386  6895,6727.846,91.532,351.711,347.71,0.0
53164.0,STARLINK-4116,PAYLOAD,2022-08-26 14:00:01,15.73236391,0.0002876,53.2139,208.903,14.2696,284.1517,-0.00050788,-0.00071426,0.0,0 STARLINK-4116,1 53164U 22083AJ  22238.58335648 -.00071426  00000-0 -50788-3 0  9996,2 53164  53.2139 208.9030 0002876  14.2696 284.1517 15.73236391  1309,6727.791,91.531,351.591,347.722,0.0
53164.0,STARLINK-4116,PAYLOAD,2022-08-26 22:00:00,15.73206239,0.0002751999999999,53.2149,207.2505,16.4647,10.8258,0.00014267,0.00019455,0.0,0 STARLINK-4116,1 53164U 22083AJ  22238.91667824  .00019455  00000-0  14267-3 0  9991,2 53164  53.2149 207.2505 0002752  16.4647  10.8258 15.73206239  1306,6727.877,91.533,351.594,347.891,0.0
53164.0,STARLINK-4116,PAYLOAD,2022-08-27 14:00:01,15.72960608,0.0002636,53.2172,203.9518,12.9969,191.9006,-0.0085275,-0.01065346,0.0,0 STARLINK-4116,1 53164U 22083AJ  22239.58334491 -.01065346  00000-0 -85275-2 0  9995,2 53164  53.2172 203.9518 0002636  12.9969 191.9006 15.72960608  1306,6728.578,91.547,352.216,348.6690000000001,0.0
53164.0,STARLINK-4116,PAYLOAD,2022-08-27 20:00:01,15.72383492,0.0002773999999999,53.2172,202.7159,13.8642,167.2465,-0.0086492999999999,-0.01055246,0.0,0 STARLINK-4116,1 53164U 22083AJ  22239.83334491 -.01055246  00000-0 -86493-2 0  9994,2 53164  53.2172 202.7159 0002774  13.8642 167.2465 15.72383492  7148,6730.224,91.581,353.956,350.222,0.0
53164.0,STARLINK-4116,PAYLOAD,2022-08-27 22:00:00,15.72193863,0.0002638,53.2175,202.3048,12.4502,280.6156,-0.0087114,-0.01054256,0.0,0 STARLINK-4116,1 53164U 22083AJ  22239.91667824 -.01054256  00000-0 -87114-2 0  9993,2 53164  53.2175 202.3048 0002638  12.4502 280.6156 15.72193863  1303,6730.765,91.592,354.406,350.855,0.0
53164.0,STARLINK-4116,PAYLOAD,2022-08-28 14:00:01,15.70684321,0.0003136,53.2174,199.0193,334.7459,131.9077,-0.0094473,-0.01070614,0.0,0 STARLINK-4116,1 53164U 22083AJ  22240.58334491 -.01070614  00000-0 -94473-2 0  9991,2 53164  53.2174 199.0193 0003136 334.7459 131.9077 15.70684321  7263,6735.0769999999975,91.68,359.05400000000014,354.83,0.0
53164.0,STARLINK-4116,PAYLOAD,2022-08-28 22:00:00,15.69914399,0.0003293,53.2177,197.3783,359.3452,192.7387,-0.0095717999999999,-0.01052236,0.0,0 STARLINK-4116,1 53164U 22083AJ  22240.91667824 -.01052236  00000-0 -95718-2 0  9990,2 53164  53.2177 197.3783 0003293 359.3452 192.7387 15.69914399  1309,6737.279,91.725,361.362,356.925,0.0
53164.0,STARLINK-4116,PAYLOAD,2022-08-29 14:00:01,15.68393233,4.31e-05,53.2175,194.1035,45.7211,314.4793,-0.010162,-0.01047745,0.0,0 STARLINK-4116,1 53164U 22083AJ  22241.58334491 -.01047745  00000-0 -10162-1 0  9993,2 53164  53.2175 194.1035 0000431  45.7211 314.4793 15.68393233  7411,6741.634,91.814,363.79,363.209,0.0
53164.0,STARLINK-4116,PAYLOAD,2022-08-29 22:00:00,15.67634745,0.0001261,53.2176,192.4683,53.8995,28.9887,-0.010499,-0.0104928,0.0,0 STARLINK-4116,1 53164U 22083AJ  22241.91667824 -.01049280  00000-0 -10499-1 0  9998,2 53164  53.2176 192.4683 0001261  53.8995  28.9887 15.67634745  1301,6743.809,91.858,366.524,364.823,0.0
53164.0,STARLINK-4116,PAYLOAD,2022-08-30 06:00:00,15.66874382,0.0001306,53.2175,190.8374,65.3146,99.3486,-0.010809,-0.01047352,0.0,0 STARLINK-4116,1 53164U 22083AJ  22242.25001157 -.01047352  00000-0 -10809-1 0  9990,2 53164  53.2175 190.8374 0001306  65.3146  99.3486 15.66874382  7524,6745.99,91.903,368.736,366.974,0.0
53164.0,STARLINK-4116,PAYLOAD,2022-08-30 14:00:01,15.6611783,0.0001154,53.2174,189.2045,80.7775,164.7493,-0.011214,-0.01052943,0.0,0 STARLINK-4116,1 53164U 22083AJ  22242.58334491 -.01052943  00000-0 -11214-1 0  9999,2 53164  53.2174 189.2045 0001154  80.7775 164.7493 15.66117830  1303,6748.163000000001,91.947,370.807,369.249,0.0
